IRIDIUM 144             
1 43249U 18030A   25042.75791023  .00000180  00000+0  57371-4 0  9996
2 43249  86.4005 135.4532 0002183  96.1523 263.9921 14.34217928359864
IRIDIUM 149             
1 43250U 18030B   25042.76425215  .00000166  00000+0  52381-4 0  9996
2 43250  86.4004 135.4232 0002176  92.1309 268.0136 14.34217050359862
IRIDIUM 157             
1 43251U 18030C   25042.50420511  .00000040  00000+0  73339-5 0  9991
2 43251  86.4008 135.5738 0001740  98.6129 261.5263 14.34218673359801
IRIDIUM 140             
1 43252U 18030D   25042.80230653  .00000798  00000+0  27775-3 0  9992
2 43252  86.4006 135.4635 0002265  96.3338 263.8116 14.34218577359901
IRIDIUM 145             
1 43253U 18030E   25042.51054905 -.00000185  00000+0 -73130-4 0  9994
2 43253  86.4005 135.5581 0002241  87.0311 273.1141 14.34218330359790
IRIDIUM 146             
1 43254U 18030F   25042.77059600  .00000091  00000+0  25479-4 0  9997
2 43254  86.4006 135.4638 0002521  89.6286 270.5199 14.34218344359849
IRIDIUM 148             
1 43255U 18030G   25042.73888092  .00000816  00000+0  28432-3 0  9995
2 43255  86.4006 135.5123 0002082  90.7616 269.3819 14.34219604359881
IRIDIUM 142             
1 43256U 18030H   25042.35832731  .00000147  00000+0  45301-4 0  9995
2 43256  86.4004 135.5783 0002369  86.3299 273.8168 14.34217956359782
